CTC2_L_00137016-03
1 69935U 25005EI  26070.40843750  .00000000  00000+0  00000-0 0  9999
2 69935  95.0000 180.0000 0000000   0.0000   0.0000 13.03091871    11
CTC2_L_00137016-04
1 69936U 22551ND  26070.40843750  .00000000  00000+0  00000-0 0  9993
2 69936  95.0000 180.0000 0000000   0.0000  90.0000 13.03091871    11
CTC2_L_00137017-01
1 69937U 24063LU  26070.40843750  .00000000  00000+0  00000-0 0  9994
2 69937  95.0000 192.0000 0000000   0.0000 192.0000 13.03091871    18
CTC2_L_00137017-02
1 69938U 26341UQ  26070.40843750  .00000000  00000+0  00000-0 0  9996
2 69938  95.0000 192.0000 0000000   0.0000 282.0000 13.03091871    19
CTC2_L_00137017-03
1 69939U 25155NB  26070.40843750  .00000000  00000+0  00000-0 0  9999
2 69939  95.0000 192.0000 0000000   0.0000  12.0000 13.03091871    11
CTC2_L_00137017-04
1 69940U 25307MK  26070.40843750  .00000000  00000+0  00000-0 0  9990
2 69940  95.0000 192.0000 0000000   0.0000 102.0000 13.03091871    13
CTC2_L_00137018-01
1 69941U 22530UU  26070.40843750  .00000000  00000+0  00000-0 0  9996
2 69941  95.0000 204.0000 0000000   0.0000 204.0000 13.03091871    11
CTC2_L_00137018-02
1 69942U 26840KS  26070.40843750  .00000000  00000+0  00000-0 0  9995
2 69942  95.0000 204.0000 0000000   0.0000 294.0000 13.03091871    11
CTC2_L_00137018-03
1 69943U 26230FC  26070.40843750  .00000000  00000+0  00000-0 0  9999
2 69943  95.0000 204.0000 0000000   0.0000  24.0000 13.03091871    13
CTC2_L_00137018-04
1 69944U 23333GZ  26070.40843750  .00000000  00000+0  00000-0 0  9991
2 69944  95.0000 204.0000 0000000   0.0000 114.0000 13.03091871    14
CTC2_L_00137019-01
1 69945U 23542CL  26070.40843750  .00000000  00000+0  00000-0 0  9994
2 69945  95.0000 216.0000 0000000   0.0000 216.0000 13.03091871    11
CTC2_L_00137019-02
1 69946U 26500UN  26070.40843750  .00000000  00000+0  00000-0 0  9992
2 69946  95.0000 216.0000 0000000   0.0000 306.0000 13.03091871    12
CTC2_L_00137019-03
1 69947U 22107QC  26070.40843750  .00000000  00000+0  00000-0 0  9992
2 69947  95.0000 216.0000 0000000   0.0000  36.0000 13.03091871    13
CTC2_L_00137019-04
1 69948U 22150TD  26070.40843750  .00000000  00000+0  00000-0 0  9991
2 69948  95.0000 216.0000 0000000   0.0000 126.0000 13.03091871    14
CTC2_L_00137020-01
1 69949U 26014VC  26070.40843750  .00000000  00000+0  00000-0 0  9995
2 69949  95.0000 228.0000 0000000   0.0000 228.0000 13.03091871    11
CTC2_L_00137020-02
1 69950U 22297JK  26070.40843750  .00000000  00000+0  00000-0 0  9996
2 69950  95.0000 228.0000 0000000   0.0000 318.0000 13.03091871    13
CTC2_L_00137020-03
1 69951U 25849EJ  26070.40843750  .00000000  00000+0  00000-0 0  9993
2 69951  95.0000 228.0000 0000000   0.0000  48.0000 13.03091871    14
CTC2_L_00137020-04
1 69952U 23666HA  26070.40843750  .00000000  00000+0  00000-0 0  9999
2 69952  95.0000 228.0000 0000000   0.0000 138.0000 13.03091871    15
CTC2_L_00137021-01
1 69953U 22049TL  26070.40843750  .00000000  00000+0  00000-0 0  9994
2 69953  95.0000 240.0000 0000000   0.0000 240.0000 13.03091871    14
CTC2_L_00137021-02
1 69954U 26855QH  26070.40843750  .00000000  00000+0  00000-0 0  9994
2 69954  95.0000 240.0000 0000000   0.0000 330.0000 13.03091871    15
CTC2_L_00137021-03
1 69955U 26921UR  26070.40843750  .00000000  00000+0  00000-0 0  9999
2 69955  95.0000 240.0000 0000000   0.0000  60.0000 13.03091871    16
CTC2_L_00137021-04
1 69956U 22353JF  26070.40843750  .00000000  00000+0  00000-0 0  9995
2 69956  95.0000 240.0000 0000000   0.0000 150.0000 13.03091871    17
CTC2_L_00137022-01
1 69957U 26679CT  26070.40843750  .00000000  00000+0  00000-0 0  9991
2 69957  95.0000 252.0000 0000000   0.0000 252.0000 13.03091871    14
CTC2_L_00137022-02
1 69958U 26173MG  26070.40843750  .00000000  00000+0  00000-0 0  9991
2 69958  95.0000 252.0000 0000000   0.0000 342.0000 13.03091871    15
CTC2_L_00137022-03
1 69959U 24727DM  26070.40843750  .00000000  00000+0  00000-0 0  9995
2 69959  95.0000 252.0000 0000000   0.0000  72.0000 13.03091871    16
CTC2_L_00137022-04
1 69960U 24271ZL  26070.40843750  .00000000  00000+0  00000-0 0  9991
2 69960  95.0000 252.0000 0000000   0.0000 162.0000 13.03091871    18
CTC2_L_00137023-01
1 69961U 22664QO  26070.40843750  .00000000  00000+0  00000-0 0  9996
2 69961  95.0000 264.0000 0000000   0.0000 264.0000 13.03091871    15
CTC2_L_00137023-02
1 69962U 26530NT  26070.40843750  .00000000  00000+0  00000-0 0  9993
2 69962  95.0000 264.0000 0000000   0.0000 354.0000 13.03091871    16
CTC2_L_00137023-03
1 69963U 22663PN  26070.40843750  .00000000  00000+0  00000-0 0  9997
2 69963  95.0000 264.0000 0000000   0.0000  84.0000 13.03091871    17
CTC2_L_00137023-04
1 69964U 25007KY  26070.40843750  .00000000  00000+0  00000-0 0  9993
2 69964  95.0000 264.0000 0000000   0.0000 174.0000 13.03091871    18
CTC2_L_00137024-01
1 69965U 22497TY  26070.40843750  .00000000  00000+0  00000-0 0  9994
2 69965  95.0000 276.0000 0000000   0.0000 276.0000 13.03091871    15
CTC2_L_00137024-02
1 69966U 23863CL  26070.40843750  .00000000  00000+0  00000-0 0  9993
2 69966  95.0000 276.0000 0000000   0.0000   6.0000 13.03091871    17
CTC2_L_00137024-03
1 69967U 22187SN  26070.40843750  .00000000  00000+0  00000-0 0  9992
2 69967  95.0000 276.0000 0000000   0.0000  96.0000 13.03091871    17
CTC2_L_00137024-04
1 69968U 25546ZY  26070.40843750  .00000000  00000+0  00000-0 0  9995
2 69968  95.0000 276.0000 0000000   0.0000 186.0000 13.03091871    18
CTC2_L_00137025-01
1 69969U 22496ZW  26070.40843750  .00000000  00000+0  00000-0 0  9997
2 69969  95.0000 288.0000 0000000   0.0000 288.0000 13.03091871    15
CTC2_L_00137025-02
1 69970U 23285MB  26070.40843750  .00000000  00000+0  00000-0 0  9996
2 69970  95.0000 288.0000 0000000   0.0000  18.0000 13.03091871    18
CTC2_L_00137025-03
1 69971U 22213TK  26070.40843750  .00000000  00000+0  00000-0 0  9997
2 69971  95.0000 288.0000 0000000   0.0000 108.0000 13.03091871    19
CTC2_L_00137025-04
1 69972U 25596BW  26070.40843750  .00000000  00000+0  00000-0 0  9995
2 69972  95.0000 288.0000 0000000   0.0000 198.0000 13.03091871    19
CTC2_L_00137026-01
1 69973U 22873YF  26070.40843750  .00000000  00000+0  00000-0 0  9991
2 69973  95.0000 300.0000 0000000   0.0000 300.0000 13.03091871    10
CTC2_L_00137026-02
1 69974U 22311NH  26070.40843750  .00000000  00000+0  00000-0 0  9999
2 69974  95.0000 300.0000 0000000   0.0000  30.0000 13.03091871    11
CTC2_L_00137026-03
1 69975U 26190IC  26070.40843750  .00000000  00000+0  00000-0 0  9999
2 69975  95.0000 300.0000 0000000   0.0000 120.0000 13.03091871    12
CTC2_L_00137026-04
1 69976U 24143HV  26070.40843750  .00000000  00000+0  00000-0 0  9996
2 69976  95.0000 300.0000 0000000   0.0000 210.0000 13.03091871    13
CTC2_L_00137027-01
1 69977U 24106TC  26070.40843750  .00000000  00000+0  00000-0 0  9996
2 69977  95.0000 312.0000 0000000   0.0000 312.0000 13.03091871    10
CTC2_L_00137027-02
1 69978U 24891ZT  26070.40843750  .00000000  00000+0  00000-0 0  9998
2 69978  95.0000 312.0000 0000000   0.0000  42.0000 13.03091871    11
CTC2_L_00137027-03
1 69979U 25860EX  26070.40843750  .00000000  00000+0  00000-0 0  9996
2 69979  95.0000 312.0000 0000000   0.0000 132.0000 13.03091871    12
CTC2_L_00137027-04
1 69980U 22396MO  26070.40843750  .00000000  00000+0  00000-0 0  9999
2 69980  95.0000 312.0000 0000000   0.0000 222.0000 13.03091871    14
CTC2_L_00137028-01
1 69981U 24869AA  26070.40843750  .00000000  00000+0  00000-0 0  9997
2 69981  95.0000 324.0000 0000000   0.0000 324.0000 13.03091871    11
CTC2_L_00137028-02
1 69982U 22112YM  26070.40843750  .00000000  00000+0  00000-0 0  9997
2 69982  95.0000 324.0000 0000000   0.0000  54.0000 13.03091871    12
CTC2_L_00137028-03
1 69983U 22967SC  26070.40843750  .00000000  00000+0  00000-0 0  9996
2 69983  95.0000 324.0000 0000000   0.0000 144.0000 13.03091871    13
CTC2_L_00137028-04
1 69984U 23878TM  26070.40843750  .00000000  00000+0  00000-0 0  9999
2 69984  95.0000 324.0000 0000000   0.0000 234.0000 13.03091871    14
CTC2_L_00137029-01
1 69985U 24206XV  26070.40843750  .00000000  00000+0  00000-0 0  9996
2 69985  95.0000 336.0000 0000000   0.0000 336.0000 13.03091871    11
CTC2_L_00137029-02
1 69986U 23076LF  26070.40843750  .00000000  00000+0  00000-0 0  9991
2 69986  95.0000 336.0000 0000000   0.0000  66.0000 13.03091871    12
CTC2_L_00137029-03
1 69987U 26558NP  26070.40843750  .00000000  00000+0  00000-0 0  9990
2 69987  95.0000 336.0000 0000000   0.0000 156.0000 13.03091871    13
CTC2_L_00137029-04
1 69988U 25110PO  26070.40843750  .00000000  00000+0  00000-0 0  9994
2 69988  95.0000 336.0000 0000000   0.0000 246.0000 13.03091871    14
CTC2_L_00137030-01
1 69989U 26430BX  26070.40843750  .00000000  00000+0  00000-0 0  9991
2 69989  95.0000 348.0000 0000000   0.0000 348.0000 13.03091871    11
CTC2_L_00137030-02
1 69990U 24814BG  26070.40843750  .00000000  00000+0  00000-0 0  9997
2 69990  95.0000 348.0000 0000000   0.0000  78.0000 13.03091871    13
CTC2_L_00137030-03
1 69991U 24938CC  26070.40843750  .00000000  00000+0  00000-0 0  9995
2 69991  95.0000 348.0000 0000000   0.0000 168.0000 13.03091871    14
CTC2_L_00137030-04
1 69992U 24914MA  26070.40843750  .00000000  00000+0  00000-0 0  9990
2 69992  95.0000 348.0000 0000000   0.0000 258.0000 13.03091871    15
